[Satellite]
VERSION=1.1
NAME=ONEWEB-0517
NICKNAME=ONEWEB-0517
TLE1=1 54135U 22138Y   22321.58334491 -.00880795  00000+0 -13163+0 0  9992
TLE2=2 54135  87.4487 208.5619 0012774 190.0846 294.1773 14.77640843  1309
STATUS=0
